[{"OBJECT_NAME":"QIANFAN-18","OBJECT_ID":"2024-140T","EPOCH":"2026-03-03T03:31:08.270400","MEAN_MOTION":13.51003184,"ECCENTRICITY":0.0013337,"INCLINATION":88.9726,"RA_OF_ASC_NODE":290.6568,"ARG_OF_PERICENTER":322.6777,"MEAN_ANOMALY":37.3446,"EPHEMERIS_TYPE":0,"CLASSIFICATION_TYPE":"U","NORAD_CAT_ID":60396,"ELEMENT_SET_NO":999,"REV_AT_EPOCH":7838,"BSTAR":0.00016742,"MEAN_MOTION_DOT":1.2e-6,"MEAN_MOTION_DDOT":0},{"OBJECT_NAME":"QIANFAN-19","OBJECT_ID":"2024-185A","EPOCH":"2026-03-03T02:19:56.015904","MEAN_MOTION":14.14383771,"ECCENTRICITY":0.0008791,"INCLINATION":88.9757,"RA_OF_ASC_NODE":68.7151,"ARG_OF_PERICENTER":57.2562,"MEAN_ANOMALY":302.9471,"EPHEMERIS_TYPE":0,"CLASSIFICATION_TYPE":"U","NORAD_CAT_ID":61552,"ELEMENT_SET_NO":999,"REV_AT_EPOCH":8102,"BSTAR":0.00029735,"MEAN_MOTION_DOT":5.83e-6,"MEAN_MOTION_DDOT":0},{"OBJECT_NAME":"QIANFAN-20","OBJECT_ID":"2024-185B","EPOCH":"2026-03-03T03:45:11.173248","MEAN_MOTION":14.08930227,"ECCENTRICITY":0.0007932,"INCLINATION":88.9754,"RA_OF_ASC_NODE":69.1133,"ARG_OF_PERICENTER":88.3832,"MEAN_ANOMALY":271.8261,"EPHEMERIS_TYPE":0,"CLASSIFICATION_TYPE":"U","NORAD_CAT_ID":61553,"ELEMENT_SET_NO":999,"REV_AT_EPOCH":8081,"BSTAR":0.00032897,"MEAN_MOTION_DOT":5.83e-6,"MEAN_MOTION_DDOT":0},{"OBJECT_NAME":"QIANFAN-21","OBJECT_ID":"2024-185C","EPOCH":"2026-03-03T03:27:03.647808","MEAN_MOTION":14.22723907,"ECCENTRICITY":0.0012949,"INCLINATION":88.9674,"RA_OF_ASC_NODE":67.5433,"ARG_OF_PERICENTER":99.5371,"MEAN_ANOMALY":260.7285,"EPHEMERIS_TYPE":0,"CLASSIFICATION_TYPE":"U","NORAD_CAT_ID":61554,"ELEMENT_SET_NO":999,"REV_AT_EPOCH":8140,"BSTAR":0.00032632,"MEAN_MOTION_DOT":7.46e-6,"MEAN_MOTION_DDOT":0},{"OBJECT_NAME":"QIANFAN-22","OBJECT_ID":"2024-185D","EPOCH":"2026-03-03T04:42:03.758112","MEAN_MOTION":13.86337176,"ECCENTRICITY":0.0008505,"INCLINATION":88.9738,"RA_OF_ASC_NODE":70.4152,"ARG_OF_PERICENTER":105.7163,"MEAN_ANOMALY":254.4946,"EPHEMERIS_TYPE":0,"CLASSIFICATION_TYPE":"U","NORAD_CAT_ID":61555,"ELEMENT_SET_NO":999,"REV_AT_EPOCH":8008,"BSTAR":0.00022559,"MEAN_MOTION_DOT":2.74e-6,"MEAN_MOTION_DDOT":0},{"OBJECT_NAME":"QIANFAN-23","OBJECT_ID":"2024-185E","EPOCH":"2026-03-03T04:06:34.348032","MEAN_MOTION":14.16388648,"ECCENTRICITY":0.0009677,"INCLINATION":88.9749,"RA_OF_ASC_NODE":68.4784,"ARG_OF_PERICENTER":65.0588,"MEAN_ANOMALY":295.1604,"EPHEMERIS_TYPE":0,"CLASSIFICATION_TYPE":"U","NORAD_CAT_ID":61556,"ELEMENT_SET_NO":999,"REV_AT_EPOCH":8113,"BSTAR":0.00030912,"MEAN_MOTION_DOT":6.28e-6,"MEAN_MOTION_DDOT":0},{"OBJECT_NAME":"QIANFAN-24","OBJECT_ID":"2024-185F","EPOCH":"2026-03-03T03:34:31.975680","MEAN_MOTION":14.23926937,"ECCENTRICITY":0.0010842,"INCLINATION":88.9732,"RA_OF_ASC_NODE":67.7544,"ARG_OF_PERICENTER":45.736,"MEAN_ANOMALY":314.472,"EPHEMERIS_TYPE":0,"CLASSIFICATION_TYPE":"U","NORAD_CAT_ID":61557,"ELEMENT_SET_NO":999,"REV_AT_EPOCH":8146,"BSTAR":0.000376,"MEAN_MOTION_DOT":8.76e-6,"MEAN_MOTION_DDOT":0},{"OBJECT_NAME":"QIANFAN-25","OBJECT_ID":"2024-185G","EPOCH":"2026-03-03T03:30:07.597728","MEAN_MOTION":14.0599221,"ECCENTRICITY":0.0011929,"INCLINATION":88.9746,"RA_OF_ASC_NODE":69.0717,"ARG_OF_PERICENTER":71.963,"MEAN_ANOMALY":288.285,"EPHEMERIS_TYPE":0,"CLASSIFICATION_TYPE":"U","NORAD_CAT_ID":61558,"ELEMENT_SET_NO":999,"REV_AT_EPOCH":8080,"BSTAR":0.00030336,"MEAN_MOTION_DOT":5.11e-6,"MEAN_MOTION_DDOT":0},{"OBJECT_NAME":"QIANFAN-26","OBJECT_ID":"2024-185H","EPOCH":"2026-03-03T03:22:56.531712","MEAN_MOTION":13.77859936,"ECCENTRICITY":0.000756,"INCLINATION":88.9744,"RA_OF_ASC_NODE":71.0573,"ARG_OF_PERICENTER":118.4638,"MEAN_ANOMALY":241.7291,"EPHEMERIS_TYPE":0,"CLASSIFICATION_TYPE":"U","NORAD_CAT_ID":61559,"ELEMENT_SET_NO":999,"REV_AT_EPOCH":7974,"BSTAR":0.0002575,"MEAN_MOTION_DOT":2.71e-6,"MEAN_MOTION_DDOT":0},{"OBJECT_NAME":"QIANFAN-27","OBJECT_ID":"2024-185J","EPOCH":"2026-03-03T03:45:20.947680","MEAN_MOTION":14.27439883,"ECCENTRICITY":0.0008937,"INCLINATION":88.9746,"RA_OF_ASC_NODE":67.4979,"ARG_OF_PERICENTER":39.2543,"MEAN_ANOMALY":320.9298,"EPHEMERIS_TYPE":0,"CLASSIFICATION_TYPE":"U","NORAD_CAT_ID":61560,"ELEMENT_SET_NO":999,"REV_AT_EPOCH":8163,"BSTAR":0.00026603,"MEAN_MOTION_DOT":6.67e-6,"MEAN_MOTION_DDOT":0},{"OBJECT_NAME":"QIANFAN-28","OBJECT_ID":"2024-185K","EPOCH":"2026-03-03T02:20:04.787232","MEAN_MOTION":14.28206121,"ECCENTRICITY":0.0008535,"INCLINATION":88.9761,"RA_OF_ASC_NODE":67.5119,"ARG_OF_PERICENTER":40.2594,"MEAN_ANOMALY":319.9232,"EPHEMERIS_TYPE":0,"CLASSIFICATION_TYPE":"U","NORAD_CAT_ID":61561,"ELEMENT_SET_NO":999,"REV_AT_EPOCH":8164,"BSTAR":0.00039684,"MEAN_MOTION_DOT":1.003e-5,"MEAN_MOTION_DDOT":0},{"OBJECT_NAME":"QIANFAN-29","OBJECT_ID":"2024-185L","EPOCH":"2026-03-03T04:04:59.416896","MEAN_MOTION":13.51042463,"ECCENTRICITY":0.0010136,"INCLINATION":88.9717,"RA_OF_ASC_NODE":72.984,"ARG_OF_PERICENTER":166.414,"MEAN_ANOMALY":193.7286,"EPHEMERIS_TYPE":0,"CLASSIFICATION_TYPE":"U","NORAD_CAT_ID":61562,"ELEMENT_SET_NO":999,"REV_AT_EPOCH":7865,"BSTAR":0.00030148,"MEAN_MOTION_DOT":2.07e-6,"MEAN_MOTION_DDOT":0},{"OBJECT_NAME":"QIANFAN-30","OBJECT_ID":"2024-185M","EPOCH":"2026-03-03T03:09:48.739104","MEAN_MOTION":13.50017597,"ECCENTRICITY":0.0008468,"INCLINATION":88.9736,"RA_OF_ASC_NODE":72.5442,"ARG_OF_PERICENTER":150.2358,"MEAN_ANOMALY":209.9275,"EPHEMERIS_TYPE":0,"CLASSIFICATION_TYPE":"U","NORAD_CAT_ID":61563,"ELEMENT_SET_NO":999,"REV_AT_EPOCH":7891,"BSTAR":0.00029626,"MEAN_MOTION_DOT":2.0e-6,"MEAN_MOTION_DDOT":0},{"OBJECT_NAME":"QIANFAN-31","OBJECT_ID":"2024-185N","EPOCH":"2026-03-03T03:27:13.770432","MEAN_MOTION":13.58001863,"ECCENTRICITY":0.0008158,"INCLINATION":88.9721,"RA_OF_ASC_NODE":72.2169,"ARG_OF_PERICENTER":141.5568,"MEAN_ANOMALY":218.617,"EPHEMERIS_TYPE":0,"CLASSIFICATION_TYPE":"U","NORAD_CAT_ID":61564,"ELEMENT_SET_NO":999,"REV_AT_EPOCH":7907,"BSTAR":0.00027975,"MEAN_MOTION_DOT":2.14e-6,"MEAN_MOTION_DDOT":0},{"OBJECT_NAME":"QIANFAN-32","OBJECT_ID":"2024-185P","EPOCH":"2026-03-03T03:07:03.317664","MEAN_MOTION":13.5076311,"ECCENTRICITY":0.0009471,"INCLINATION":88.978,"RA_OF_ASC_NODE":72.7032,"ARG_OF_PERICENTER":179.6802,"MEAN_ANOMALY":180.4357,"EPHEMERIS_TYPE":0,"CLASSIFICATION_TYPE":"U","NORAD_CAT_ID":61565,"ELEMENT_SET_NO":999,"REV_AT_EPOCH":7889,"BSTAR":0.00025843,"MEAN_MOTION_DOT":1.78e-6,"MEAN_MOTION_DDOT":0},{"OBJECT_NAME":"QIANFAN-33","OBJECT_ID":"2024-185Q","EPOCH":"2026-03-03T03:35:39.892128","MEAN_MOTION":13.96620331,"ECCENTRICITY":0.0009338,"INCLINATION":88.9735,"RA_OF_ASC_NODE":69.8263,"ARG_OF_PERICENTER":79.5699,"MEAN_ANOMALY":280.653,"EPHEMERIS_TYPE":0,"CLASSIFICATION_TYPE":"U","NORAD_CAT_ID":61566,"ELEMENT_SET_NO":999,"REV_AT_EPOCH":8038,"BSTAR":0.00032951,"MEAN_MOTION_DOT":4.7e-6,"MEAN_MOTION_DDOT":0},{"OBJECT_NAME":"QIANFAN-34","OBJECT_ID":"2024-185R","EPOCH":"2026-03-03T03:24:33.583968","MEAN_MOTION":14.02380253,"ECCENTRICITY":0.0008257,"INCLINATION":88.9711,"RA_OF_ASC_NODE":69.2839,"ARG_OF_PERICENTER":83.2818,"MEAN_ANOMALY":276.9302,"EPHEMERIS_TYPE":0,"CLASSIFICATION_TYPE":"U","NORAD_CAT_ID":61567,"ELEMENT_SET_NO":999,"REV_AT_EPOCH":8062,"BSTAR":0.00030964,"MEAN_MOTION_DOT":4.89e-6,"MEAN_MOTION_DDOT":0}]
