QIANFAN-18              
1 60396U 24140T   26062.14662350  .00000120  00000+0  16742-3 0  9993
2 60396  88.9726 290.6568 0013337 322.6777  37.3446 13.51003184 78382
QIANFAN-19              
1 61552U 24185A   26062.09717611  .00000583  00000+0  29735-3 0  9991
2 61552  88.9757  68.7151 0008791  57.2562 302.9471 14.14383771 81021
QIANFAN-20              
1 61553U 24185B   26062.15637932  .00000583  00000+0  32897-3 0  9999
2 61553  88.9754  69.1133 0007932  88.3832 271.8261 14.08930227 80819
QIANFAN-21              
1 61554U 24185C   26062.14379222  .00000746  00000+0  32632-3 0  9992
2 61554  88.9674  67.5433 0012949  99.5371 260.7285 14.22723907 81402
QIANFAN-22              
1 61555U 24185D   26062.19587683  .00000274  00000+0  22559-3 0  9993
2 61555  88.9738  70.4152 0008505 105.7163 254.4946 13.86337176 80082
QIANFAN-23              
1 61556U 24185E   26062.17123088  .00000628  00000+0  30912-3 0  9992
2 61556  88.9749  68.4784 0009677  65.0588 295.1604 14.16388648 81137
QIANFAN-24              
1 61557U 24185F   26062.14898120  .00000876  00000+0  37600-3 0  9992
2 61557  88.9732  67.7544 0010842  45.7360 314.4720 14.23926937 81462
QIANFAN-25              
1 61558U 24185G   26062.14592127  .00000511  00000+0  30336-3 0  9996
2 61558  88.9746  69.0717 0011929  71.9630 288.2850 14.05992210 80809
QIANFAN-26              
1 61559U 24185H   26062.14093208  .00000271  00000+0  25750-3 0  9990
2 61559  88.9744  71.0573 0007560 118.4638 241.7291 13.77859936 79741
QIANFAN-27              
1 61560U 24185J   26062.15649245  .00000667  00000+0  26603-3 0  9998
2 61560  88.9746  67.4979 0008937  39.2543 320.9298 14.27439883 81637
QIANFAN-28              
1 61561U 24185K   26062.09727763  .00001003  00000+0  39684-3 0  9992
2 61561  88.9761  67.5119 0008535  40.2594 319.9232 14.28206121 81649
QIANFAN-29              
1 61562U 24185L   26062.17013214  .00000207  00000+0  30148-3 0  9992
2 61562  88.9717  72.9840 0010136 166.4140 193.7286 13.51042463 78656
QIANFAN-30              
1 61563U 24185M   26062.13181411  .00000200  00000+0  29626-3 0  9996
2 61563  88.9736  72.5442 0008468 150.2358 209.9275 13.50017597 78915
QIANFAN-31              
1 61564U 24185N   26062.14390938  .00000214  00000+0  27975-3 0  9994
2 61564  88.9721  72.2169 0008158 141.5568 218.6170 13.58001863 79071
QIANFAN-32              
1 61565U 24185P   26062.12989951  .00000178  00000+0  25843-3 0  9993
2 61565  88.9780  72.7032 0009471 179.6802 180.4357 13.50763110 78897
QIANFAN-33              
1 61566U 24185Q   26062.14976727  .00000470  00000+0  32951-3 0  9996
2 61566  88.9735  69.8263 0009338  79.5699 280.6530 13.96620331 80385
QIANFAN-34              
1 61567U 24185R   26062.14205537  .00000489  00000+0  30964-3 0  9993
2 61567  88.9711  69.2839 0008257  83.2818 276.9302 14.02380253 80623
